{
    "links": {
        "self": "http://www.neowsapp.com/rest/v1/neo/3555912?api_key=iIulBulltgU6a56xZRHN4H3l9WmuAYTsLGpBGhQ2"
    },
    "id": "3555912",
    "neo_reference_id": "3555912",
    "name": "(2011 BG40)",
    "designation": "2011 BG40",
    "nasa_jpl_url": "http://ssd.jpl.nasa.gov/sbdb.cgi?sstr=3555912",
    "absolute_magnitude_h": 24.6,
    "estimated_diameter": {
        "kilometers": {
            "estimated_diameter_min": 0.0319561887,
            "estimated_diameter_max": 0.0714562102
        },
        "meters": {
            "estimated_diameter_min": 31.9561886721,
            "estimated_diameter_max": 71.4562101727
        },
        "miles": {
            "estimated_diameter_min": 0.0198566489,
            "estimated_diameter_max": 0.0444008168
        },
        "feet": {
            "estimated_diameter_min": 104.8431420431,
            "estimated_diameter_max": 234.436392583
        }
    },
    "is_potentially_hazardous_asteroid": false,
    "close_approach_data": [
        {
            "close_approach_date": "1924-04-01",
            "close_approach_date_full": "1924-Apr-01 14:51",
            "epoch_date_close_approach": -1443776940000,
            "relative_velocity": {
                "kilometers_per_second": "5.8906579257",
                "kilometers_per_hour": "21206.3685325374",
                "miles_per_hour": "13176.8127140092"
            },
            "miss_distance": {
                "astronomical": "0.0997664059",
                "lunar": "38.8091318951",
                "kilometers": "14924841.820195433",
                "miles": "9273866.6721576554"
            },
            "orbiting_body": "Mars"
        },
        {
            "close_approach_date": "1935-07-10",
            "close_approach_date_full": "1935-Jul-10 15:37",
            "epoch_date_close_approach": -1088065380000,
            "relative_velocity": {
                "kilometers_per_second": "7.4218625506",
                "kilometers_per_hour": "26718.7051821669",
                "miles_per_hour": "16601.9643394415"
            },
            "miss_distance": {
                "astronomical": "0.0699277795",
                "lunar": "27.2019062255",
                "kilometers": "10461046.867029665",
                "miles": "6500193.105212777"
            },
            "orbiting_body": "Mars"
        },
        {
            "close_approach_date": "1960-07-14",
            "close_approach_date_full": "1960-Jul-14 17:02",
            "epoch_date_close_approach": -298709880000,
            "relative_velocity": {
                "kilometers_per_second": "6.6299729316",
                "kilometers_per_hour": "23867.9025536448",
                "miles_per_hour": "14830.5864506245"
            },
            "miss_distance": {
                "astronomical": "0.0954412359",
                "lunar": "37.1266407651",
                "kilometers": "14277805.600807533",
                "miles": "8871817.0087206354"
            },
            "orbiting_body": "Mars"
        },
        {
            "close_approach_date": "2011-01-21",
            "close_approach_date_full": "2011-Jan-21 07:58",
            "epoch_date_close_approach": 1295596680000,
            "relative_velocity": {
                "kilometers_per_second": "2.3053300462",
                "kilometers_per_hour": "8299.1881662477",
                "miles_per_hour": "5156.7927802999"
            },
            "miss_distance": {
                "astronomical": "0.1027223754",
                "lunar": "39.9590040306",
                "kilometers": "15367048.561180398",
                "miles": "9548641.1995415724"
            },
            "orbiting_body": "Earth"
        },
        {
            "close_approach_date": "2038-12-22",
            "close_approach_date_full": "2038-Dec-22 01:43",
            "epoch_date_close_approach": 2176594980000,
            "relative_velocity": {
                "kilometers_per_second": "7.2907892856",
                "kilometers_per_hour": "26246.8414280981",
                "miles_per_hour": "16308.7665529202"
            },
            "miss_distance": {
                "astronomical": "0.065845548",
                "lunar": "25.613918172",
                "kilometers": "9850353.72978276",
                "miles": "6120725.985851688"
            },
            "orbiting_body": "Mars"
        }
    ],
    "orbital_data": {
        "orbit_id": "14",
        "orbit_determination_date": "2017-04-06 08:54:45",
        "first_observation_date": "2011-01-30",
        "last_observation_date": "2011-02-25",
        "data_arc_in_days": 26,
        "observations_used": 34,
        "orbit_uncertainty": "7",
        "minimum_orbit_intersection": ".0896037",
        "jupiter_tisserand_invariant": "4.781",
        "epoch_osculation": "2459000.5",
        "eccentricity": ".2213041465380712",
        "semi_major_axis": "1.376821197924",
        "inclination": "3.1053060393172",
        "ascending_node_longitude": "310.2127820734632",
        "orbital_period": "590.0852278854787",
        "perihelion_distance": "1.072124957781905",
        "perihelion_argument": "163.7134923046025",
        "aphelion_distance": "1.681517438066096",
        "perihelion_time": "2459113.633668644540",
        "mean_anomaly": "290.9792572541083",
        "mean_motion": ".6100813628058951",
        "equinox": "J2000",
        "orbit_class": {
            "orbit_class_type": "AMO",
            "orbit_class_description": "Near-Earth asteroid orbits similar to that of 1221 Amor",
            "orbit_class_range": "1.017 AU < q (perihelion) < 1.3 AU"
        }
    },
    "is_sentry_object": false
}